{
    "links": {
        "self": "http://www.neowsapp.com/rest/v1/neo/3893634?api_key=iIulBulltgU6a56xZRHN4H3l9WmuAYTsLGpBGhQ2"
    },
    "id": "3893634",
    "neo_reference_id": "3893634",
    "name": "(2019 WU3)",
    "designation": "2019 WU3",
    "nasa_jpl_url": "http://ssd.jpl.nasa.gov/sbdb.cgi?sstr=3893634",
    "absolute_magnitude_h": 26.5,
    "estimated_diameter": {
        "kilometers": {
            "estimated_diameter_min": 0.0133215567,
            "estimated_diameter_max": 0.0297879063
        },
        "meters": {
            "estimated_diameter_min": 13.3215566698,
            "estimated_diameter_max": 29.7879062798
        },
        "miles": {
            "estimated_diameter_min": 0.008277629,
            "estimated_diameter_max": 0.0185093411
        },
        "feet": {
            "estimated_diameter_min": 43.7058959846,
            "estimated_diameter_max": 97.7293544391
        }
    },
    "is_potentially_hazardous_asteroid": false,
    "close_approach_data": [
        {
            "close_approach_date": "2019-11-21",
            "close_approach_date_full": "2019-Nov-21 13:36",
            "epoch_date_close_approach": 1574343360000,
            "relative_velocity": {
                "kilometers_per_second": "11.3348462257",
                "kilometers_per_hour": "40805.4464125564",
                "miles_per_hour": "25354.9175222909"
            },
            "miss_distance": {
                "astronomical": "0.0154558005",
                "lunar": "6.0123063945",
                "kilometers": "2312154.833944935",
                "miles": "1436706.392852703"
            },
            "orbiting_body": "Earth"
        },
        {
            "close_approach_date": "2021-11-04",
            "close_approach_date_full": "2021-Nov-04 22:54",
            "epoch_date_close_approach": 1636066440000,
            "relative_velocity": {
                "kilometers_per_second": "4.1013634407",
                "kilometers_per_hour": "14764.9083864135",
                "miles_per_hour": "9174.3398804357"
            },
            "miss_distance": {
                "astronomical": "0.1345394634",
                "lunar": "52.3358512626",
                "kilometers": "20126817.155582958",
                "miles": "12506224.2591545004"
            },
            "orbiting_body": "Venus"
        },
        {
            "close_approach_date": "2021-12-17",
            "close_approach_date_full": "2021-Dec-17 01:38",
            "epoch_date_close_approach": 1639705080000,
            "relative_velocity": {
                "kilometers_per_second": "23.9157747201",
                "kilometers_per_hour": "86096.7889924514",
                "miles_per_hour": "53497.1964714485"
            },
            "miss_distance": {
                "astronomical": "0.4219252752",
                "lunar": "164.1289320528",
                "kilometers": "63119122.469083824",
                "miles": "39220404.0279878112"
            },
            "orbiting_body": "Earth"
        }
    ],
    "orbital_data": {
        "orbit_id": "2",
        "orbit_determination_date": "2019-12-02 04:56:21",
        "first_observation_date": "2019-11-28",
        "last_observation_date": "2019-12-02",
        "data_arc_in_days": 4,
        "observations_used": 16,
        "orbit_uncertainty": "8",
        "minimum_orbit_intersection": ".0154493",
        "jupiter_tisserand_invariant": "4.189",
        "epoch_osculation": "2458816.5",
        "eccentricity": ".469706630701723",
        "semi_major_axis": "1.62287647759361",
        "inclination": "4.584978079657655",
        "ascending_node_longitude": "69.54691575270705",
        "orbital_period": "755.1385212737878",
        "perihelion_distance": ".8606006352580351",
        "perihelion_argument": "294.9459854645985",
        "aphelion_distance": "2.385152319929185",
        "perihelion_time": "2458769.172420628370",
        "mean_anomaly": "22.56265320043106",
        "mean_motion": ".4767337248174579",
        "equinox": "J2000",
        "orbit_class": {
            "orbit_class_type": "APO",
            "orbit_class_description": "Near-Earth asteroid orbits which cross the Earth’s orbit similar to that of 1862 Apollo",
            "orbit_class_range": "a (semi-major axis) > 1.0 AU; q (perihelion) < 1.017 AU"
        }
    },
    "is_sentry_object": false
}